NORAD_CAT_ID,OBJECT_NAME,OBJECT_TYPE,EPOCH,MEAN_MOTION,ECCENTRICITY,INCLINATION,RA_OF_ASC_NODE,ARG_OF_PERICENTER,MEAN_ANOMALY,BSTAR,MEAN_MOTION_DOT,MEAN_MOTION_DDOT,TLE_LINE0,TLE_LINE1,TLE_LINE2,SEMIMAJOR_AXIS,PERIOD,APOGEE,PERIGEE,DECAYED
53593.0,STARLINK-4671,PAYLOAD,2023-10-22 22:50:34,15.08816173,0.0001563,53.2154,184.1304,73.3153,286.8011,0.0012666,0.00019914,0.0,0 STARLINK-4671,1 53593U 22104F   23295.95178758  .00019914  00000-0  12666-2 0  9992,2 53593  53.2154 184.1304 0001563  73.3153 286.8011 15.08816173 64797,6917.953,95.439,540.899,538.737,0.0
53593.0,STARLINK-4671,PAYLOAD,2023-10-23 00:25:57,15.08816755,0.0001614,53.2156,183.8328,72.1673,287.9495,0.0015038,0.00023711,0.0,0 STARLINK-4671,1 53593U 22104F   23296.01802891  .00023711  00000-0  15038-2 0  9998,2 53593  53.2156 183.8328 0001614  72.1673 287.9495 15.08816755 63784,6917.951,95.439,540.933,538.7,0.0
53593.0,STARLINK-4671,PAYLOAD,2023-10-23 22:41:22,15.08851336,0.0001648,53.2159,179.6704,70.7037,289.4134,0.0014931,0.00023562,0.0,0 STARLINK-4671,1 53593U 22104F   23296.94539389  .00023562  00000-0  14931-2 0  9994,2 53593  53.2159 179.6704 0001648  70.7037 289.4134 15.08851336 64943,6917.846,95.437,540.851,538.571,0.0
53593.0,STARLINK-4671,PAYLOAD,2023-10-24 01:52:08,15.08858749,0.0001651,53.216,179.0756,70.5345,289.5825,0.0016003,0.00025286,0.0,0 STARLINK-4671,1 53593U 22104F   23297.07787235  .00025286  00000-0  16003-2 0  9991,2 53593  53.2160 179.0756 0001651  70.5345 289.5825 15.08858749 63942,6917.823,95.436,540.83,538.546,0.0
53593.0,STARLINK-4671,PAYLOAD,2023-10-24 09:49:03,15.08849255,0.00018,53.217,177.585,84.148,275.9718,0.00057724,8.913e-05,0.0,0 STARLINK-4671,1 53593U 22104F   23297.40907118  .00008913  00000-0  57724-3 0  9996,2 53593  53.2170 177.5850 0001800  84.1480 275.9718 15.08849255 63995,6917.852,95.437,540.962,538.472,0.0
53593.0,STARLINK-4671,PAYLOAD,2023-10-25 01:42:54,15.08855472,0.000182,53.2172,174.6115,84.8282,275.2918,0.00038583,5.86e-05,0.0,0 STARLINK-4671,1 53593U 22104F   23298.07146614  .00005860  00000-0  38583-3 0  9996,2 53593  53.2172 174.6115 0001820  84.8282 275.2918 15.08855472 64093,6917.833,95.437,540.957,538.439,0.0
53593.0,STARLINK-4671,PAYLOAD,2023-10-25 22:22:55,15.08848497,0.0001699,53.2165,170.7461,85.3082,274.8104,0.00027436,4.082e-05,0.0,0 STARLINK-4671,1 53593U 22104F   23298.93258467  .00004082  00000-0  27436-3 0  9991,2 53593  53.2165 170.7461 0001699  85.3082 274.8104 15.08848497 65243,6917.854,95.437,540.895,538.544,0.0
53593.0,STARLINK-4671,PAYLOAD,2023-10-26 01:33:41,15.08847738,0.0001714,53.2165,170.1517,84.9529,275.1658,0.00021725,3.172e-05,0.0,0 STARLINK-4671,1 53593U 22104F   23299.06506417  .00003172  00000-0  21725-3 0  9991,2 53593  53.2165 170.1517 0001714  84.9529 275.1658 15.08847738 64242,6917.857,95.437,540.907,538.536,0.0
53593.0,STARLINK-4671,PAYLOAD,2023-10-26 20:38:18,15.08847372,0.0001694,53.2165,166.5836,85.7611,274.3575,7.0569e-05,8.35e-06,0.0,0 STARLINK-4671,1 53593U 22104F   23299.85994101  .00000835  00000-0  70569-4 0  9993,2 53593  53.2165 166.5836 0001694  85.7611 274.3575 15.08847372 65382,6917.858,95.437,540.895,538.551,0.0
53593.0,STARLINK-4671,PAYLOAD,2023-10-27 07:46:00,15.08848637,0.0001433,53.2153,164.5041,82.5771,277.5384,8.2666e-05,1.028e-05,0.0,0 STARLINK-4671,1 53593U 22104F   23300.32361853  .00001028  00000-0  82666-4 0  9996,2 53593  53.2153 164.5041 0001433  82.5771 277.5384 15.08848637 64431,6917.854,95.437,540.71,538.728,0.0
53593.0,STARLINK-4671,PAYLOAD,2023-10-27 14:07:33,15.08843246,0.0001486,53.2165,163.3173,84.9567,275.1595,8.7829e-05,1.11e-05,0.0,0 STARLINK-4671,1 53593U 22104F   23300.58858048  .00001110  00000-0  87829-4 0  9999,2 53593  53.2165 163.3173 0001486  84.9567 275.1595 15.08843246 65490,6917.87,95.437,540.763,538.707,0.0
53593.0,STARLINK-4671,PAYLOAD,2023-10-27 15:42:56,15.08842442,0.0001761,53.2157,163.0166,87.0248,273.0945,1.9596e-05,2.4e-07,0.0,0 STARLINK-4671,1 53593U 22104F   23300.65482153  .00000024  00000-0  19596-4 0  9996,2 53593  53.2157 163.0166 0001761  87.0248 273.0945 15.08842442 64487,6917.873,95.437,540.956,538.52,0.0
53593.0,STARLINK-4671,PAYLOAD,2023-10-27 22:04:28,15.08845348,0.0001788,53.2157,161.8273,89.4545,270.6652,4.4204e-05,4.16e-06,0.0,0 STARLINK-4671,1 53593U 22104F   23300.91977896  .00000416  00000-0  44204-4 0  9997,2 53593  53.2157 161.8273 0001788  89.4545 270.6652 15.08845348 65541,6917.864,95.437,540.966,538.492,0.0
53593.0,STARLINK-4671,PAYLOAD,2023-10-28 07:36:47,15.08838562,0.0001619,53.2163,160.0442,90.7261,269.3917,-4.3447e-05,-9.79e-06,0.0,0 STARLINK-4671,1 53593U 22104F   23301.31722216 -.00000979  00000-0 -43447-4 0  9990,2 53593  53.2163 160.0442 0001619  90.7261 269.3917 15.08838562 65606,6917.885,95.438,540.87,538.63,0.0
53593.0,STARLINK-4671,PAYLOAD,2023-10-28 20:19:53,15.08832638,0.0001621,53.2166,157.6656,92.7848,267.333,-0.0001258,-2.289e-05,0.0,0 STARLINK-4671,1 53593U 22104F   23301.84714813 -.00002289  00000-0 -12580-3 0  9991,2 53593  53.2166 157.6656 0001621  92.7848 267.3330 15.08832638 64664,6917.903,95.438,540.889,538.646,0.0
53593.0,STARLINK-4671,PAYLOAD,2023-10-28 21:55:16,15.08834092,0.0001844,53.2168,157.3692,101.9738,258.1461,-0.00010897,-2.022e-05,0.0,0 STARLINK-4671,1 53593U 22104F   23301.91338780 -.00002022  00000-0 -10897-3 0  9998,2 53593  53.2168 157.3692 0001844 101.9738 258.1461 15.08834092 65694,6917.898,95.438,541.039,538.488,0.0
53593.0,STARLINK-4671,PAYLOAD,2023-10-29 07:27:35,15.08839749,0.0001565,53.216,155.5825,85.9941,274.123,8.4918e-05,1.064e-05,0.0,0 STARLINK-4671,1 53593U 22104F   23302.31082638  .00001064  00000-0  84918-4 0  9990,2 53593  53.2160 155.5825 0001565  85.9941 274.1230 15.08839749 64731,6917.881,95.438,540.829,538.664,0.0
53593.0,STARLINK-4671,PAYLOAD,2023-10-29 21:46:03,15.08853321,0.0001481,53.2154,152.9058,89.9062,270.21,0.00030258,4.533e-05,0.0,0 STARLINK-4671,1 53593U 22104F   23302.90698022  .00004533  00000-0  30258-3 0  9996,2 53593  53.2154 152.9058 0001481  89.9062 270.2100 15.08853321 65846,6917.84,95.437,540.729,538.68,0.0
53593.0,STARLINK-4671,PAYLOAD,2023-10-30 00:56:49,15.0885754,0.0001486,53.215,152.3112,89.2906,270.8256,0.0004897,7.518e-05,0.0,0 STARLINK-4671,1 53593U 22104F   23303.03946005  .00007518  00000-0  48970-3 0  9994,2 53593  53.2150 152.3112 0001486  89.2906 270.8256 15.08857540 64846,6917.827,95.436,540.72,538.664,0.0
53593.0,STARLINK-4671,PAYLOAD,2023-10-31 07:09:09,15.08837446,0.0001537,53.2149,146.6601,87.8468,272.27,0.0002518,3.721e-05,0.0,0 STARLINK-4671,1 53593U 22104F   23304.29803239  .00003721  00000-0  25180-3 0  9994,2 53593  53.2149 146.6601 0001537  87.8468 272.2700 15.08837446 65032,6917.888,95.438,540.816,538.69,0.0
53593.0,STARLINK-4671,PAYLOAD,2023-10-31 13:30:42,15.08841566,0.0001421,53.217,145.4692,91.2939,268.8216,0.00041476,6.319e-05,0.0,0 STARLINK-4671,1 53593U 22104F   23304.56299209  .00006319  00000-0  41476-3 0  9992,2 53593  53.2170 145.4692 0001421  91.2939 268.8216 15.08841566 66095,6917.876,95.437,540.724,538.758,0.0
53593.0,STARLINK-4671,PAYLOAD,2023-10-31 19:52:14,15.08851765,0.0001419,53.2148,144.2826,78.3952,281.7199,0.00072622,0.00011292,0.0,0 STARLINK-4671,1 53593U 22104F   23304.82795033  .00011292  00000-0  72622-3 0  9990,2 53593  53.2148 144.2826 0001419  78.3952 281.7199 15.08851765 66135,6917.844,95.437,540.691,538.728,0.0
53593.0,STARLINK-4671,PAYLOAD,2023-11-01 13:21:29,15.08847447,0.0001642,53.2148,141.012,83.9202,276.1977,0.00027434,4.082e-05,0.0,0 STARLINK-4671,1 53593U 22104F   23305.55658924  .00004082  00000-0  27434-3 0  9998,2 53593  53.2148 141.0120 0001642  83.9202 276.1977 15.08847447 65228,6917.858,95.437,540.859,538.587,0.0
53593.0,STARLINK-4671,PAYLOAD,2023-11-01 19:43:02,15.0884694,0.0001615,53.2152,139.8215,79.6061,280.5113,0.00044469,6.798e-05,0.0,0 STARLINK-4671,1 53593U 22104F   23305.82155215  .00006798  00000-0  44469-3 0  9996,2 53593  53.2152 139.8215 0001615  79.6061 280.5113 15.08846940 66283,6917.859,95.437,540.841,538.607,0.0
53593.0,STARLINK-4671,PAYLOAD,2023-11-02 13:12:16,15.08840854,0.0001512,53.2155,136.5494,82.8196,277.2968,3.1548e-05,2.14e-06,0.0,0 STARLINK-4671,1 53593U 22104F   23306.55018931  .00000214  00000-0  31548-4 0  9992,2 53593  53.2155 136.5494 0001512  82.8196 277.2968 15.08840854 65378,6917.878,95.438,540.789,538.697,0.0
53593.0,STARLINK-4671,PAYLOAD,2023-11-02 19:33:48,15.08843125,0.0001456,53.2158,135.36,83.202,276.9138,4.8332e-05,4.81e-06,0.0,0 STARLINK-4671,1 53593U 22104F   23306.81514803  .00000481  00000-0  48332-4 0  9995,2 53593  53.2158 135.3600 0001456  83.2020 276.9138 15.08843125 66432,6917.871,95.437,540.743,538.729,0.0
53593.0,STARLINK-4671,PAYLOAD,2023-11-03 13:03:03,15.08836844,0.000141,53.2156,132.0898,90.7616,269.3537,5.6302e-05,6.08e-06,0.0,0 STARLINK-4671,1 53593U 22104F   23307.54379178  .00000608  00000-0  56302-4 0  9997,2 53593  53.2156 132.0898 0001410  90.7616 269.3537 15.08836844 66548,6917.89,95.438,540.73,538.78,0.0
53593.0,STARLINK-4671,PAYLOAD,2023-11-03 20:59:59,15.08842997,0.0001422,53.2158,130.6039,86.2761,273.8393,0.00015469,2.175e-05,0.0,0 STARLINK-4671,1 53593U 22104F   23307.87498980  .00002175  00000-0  15469-3 0  9995,2 53593  53.2158 130.6039 0001422  86.2761 273.8393 15.08842997 65573,6917.871,95.437,540.72,538.753,0.0
53593.0,STARLINK-4671,PAYLOAD,2023-11-04 04:56:54,15.0884002,0.0001426,53.2159,129.1169,87.404,272.7115,0.00016611,2.357e-05,0.0,0 STARLINK-4671,1 53593U 22104F   23308.20619166  .00002357  00000-0  16611-3 0  9996,2 53593  53.2159 129.1169 0001426  87.4040 272.7115 15.08840020 66642,6917.88,95.438,540.732,538.759,0.0
53593.0,STARLINK-4671,PAYLOAD,2023-11-04 19:15:23,15.08845216,0.0001332,53.2159,126.4407,89.0543,271.0602,0.00025071,3.705e-05,0.0,0 STARLINK-4671,1 53593U 22104F   23308.80235053  .00003705  00000-0  25071-3 0  9999,2 53593  53.2159 126.4407 0001332  89.0543 271.0602 15.08845216 66734,6917.864,95.437,540.651,538.808,0.0
